[
    {
        "OBJECT_NAME": "ONEWEB-0331",
        "OBJECT_ID": "2021-083N",
        "EPOCH": "2025-12-06T19:12:33.947424",
        "MEAN_MOTION": 13.18685618,
        "ECCENTRICITY": 0.0001537,
        "INCLINATION": 87.9182,
        "RA_OF_ASC_NODE": 13.6573,
        "ARG_OF_PERICENTER": 104.357,
        "MEAN_ANOMALY": 255.7732,
        "EPHEMERIS_TYPE": 0,
        "CLASSIFICATION_TYPE": "U",
        "NORAD_CAT_ID": 49198,
        "ELEMENT_SET_NO": 999,
        "REV_AT_EPOCH": 20465,
        "BSTAR": 4.8549891e-05,
        "MEAN_MOTION_DOT": 3.2e-07,
        "MEAN_MOTION_DDOT": 0
    },
    {
        "OBJECT_NAME": "ONEWEB-0333",
        "OBJECT_ID": "2021-083P",
        "EPOCH": "2025-12-06T19:00:06.469056",
        "MEAN_MOTION": 13.13471453,
        "ECCENTRICITY": 0.00018232,
        "INCLINATION": 87.8968,
        "RA_OF_ASC_NODE": 358.4957,
        "ARG_OF_PERICENTER": 93.8676,
        "MEAN_ANOMALY": 266.2661,
        "EPHEMERIS_TYPE": 0,
        "CLASSIFICATION_TYPE": "U",
        "NORAD_CAT_ID": 49199,
        "ELEMENT_SET_NO": 999,
        "REV_AT_EPOCH": 20565,
        "BSTAR": -8.0017206e-05,
        "MEAN_MOTION_DOT": -1.6e-07,
        "MEAN_MOTION_DDOT": 0
    },
    {
        "OBJECT_NAME": "ONEWEB-0334",
        "OBJECT_ID": "2021-083Q",
        "EPOCH": "2025-12-06T22:44:29.443200",
        "MEAN_MOTION": 13.20770977,
        "ECCENTRICITY": 0.0002754,
        "INCLINATION": 87.9185,
        "RA_OF_ASC_NODE": 312.7995,
        "ARG_OF_PERICENTER": 74.1443,
        "MEAN_ANOMALY": 285.9994,
        "EPHEMERIS_TYPE": 0,
        "CLASSIFICATION_TYPE": "U",
        "NORAD_CAT_ID": 49200,
        "ELEMENT_SET_NO": 999,
        "REV_AT_EPOCH": 21141,
        "BSTAR": 0.00030888784,
        "MEAN_MOTION_DOT": 1.39e-06,
        "MEAN_MOTION_DDOT": 0
    },
    {
        "OBJECT_NAME": "ONEWEB-0335",
        "OBJECT_ID": "2021-083R",
        "EPOCH": "2025-12-06T18:52:47.345376",
        "MEAN_MOTION": 13.1347151,
        "ECCENTRICITY": 0.00016293,
        "INCLINATION": 87.897,
        "RA_OF_ASC_NODE": 358.4853,
        "ARG_OF_PERICENTER": 98.8905,
        "MEAN_ANOMALY": 261.2408,
        "EPHEMERIS_TYPE": 0,
        "CLASSIFICATION_TYPE": "U",
        "NORAD_CAT_ID": 49201,
        "ELEMENT_SET_NO": 999,
        "REV_AT_EPOCH": 20566,
        "BSTAR": -0.00013034405,
        "MEAN_MOTION_DOT": -3.5e-07,
        "MEAN_MOTION_DDOT": 0
    },
    {
        "OBJECT_NAME": "ONEWEB-0336",
        "OBJECT_ID": "2021-083S",
        "EPOCH": "2025-12-06T18:11:20.843232",
        "MEAN_MOTION": 13.13470513,
        "ECCENTRICITY": 0.00014255,
        "INCLINATION": 87.8974,
        "RA_OF_ASC_NODE": 358.4869,
        "ARG_OF_PERICENTER": 103.5746,
        "MEAN_ANOMALY": 256.5542,
        "EPHEMERIS_TYPE": 0,
        "CLASSIFICATION_TYPE": "U",
        "NORAD_CAT_ID": 49202,
        "ELEMENT_SET_NO": 999,
        "REV_AT_EPOCH": 20565,
        "BSTAR": 5.4393629e-05,
        "MEAN_MOTION_DOT": 3.3e-07,
        "MEAN_MOTION_DDOT": 0
    },
    {
        "OBJECT_NAME": "ONEWEB-0337",
        "OBJECT_ID": "2021-083T",
        "EPOCH": "2025-12-06T18:25:46.171200",
        "MEAN_MOTION": 13.13471015,
        "ECCENTRICITY": 0.00015129,
        "INCLINATION": 87.8976,
        "RA_OF_ASC_NODE": 358.4961,
        "ARG_OF_PERICENTER": 91.8961,
        "MEAN_ANOMALY": 268.2341,
        "EPHEMERIS_TYPE": 0,
        "CLASSIFICATION_TYPE": "U",
        "NORAD_CAT_ID": 49203,
        "ELEMENT_SET_NO": 999,
        "REV_AT_EPOCH": 20565,
        "BSTAR": -0.00049158629,
        "MEAN_MOTION_DOT": -1.67e-06,
        "MEAN_MOTION_DDOT": 0
    },
    {
        "OBJECT_NAME": "ONEWEB-0338",
        "OBJECT_ID": "2021-083U",
        "EPOCH": "2025-12-06T22:08:07.922688",
        "MEAN_MOTION": 13.20772474,
        "ECCENTRICITY": 0.00020316,
        "INCLINATION": 87.919,
        "RA_OF_ASC_NODE": 312.8071,
        "ARG_OF_PERICENTER": 78.6243,
        "MEAN_ANOMALY": 281.5118,
        "EPHEMERIS_TYPE": 0,
        "CLASSIFICATION_TYPE": "U",
        "NORAD_CAT_ID": 49204,
        "ELEMENT_SET_NO": 999,
        "REV_AT_EPOCH": 21143,
        "BSTAR": -0.00014259134,
        "MEAN_MOTION_DOT": -4.5e-07,
        "MEAN_MOTION_DDOT": 0
    },
    {
        "OBJECT_NAME": "ONEWEB-0339",
        "OBJECT_ID": "2021-083V",
        "EPOCH": "2025-12-06T18:38:09.704544",
        "MEAN_MOTION": 13.13470673,
        "ECCENTRICITY": 0.00017324,
        "INCLINATION": 87.8978,
        "RA_OF_ASC_NODE": 358.4768,
        "ARG_OF_PERICENTER": 87.2347,
        "MEAN_ANOMALY": 272.8981,
        "EPHEMERIS_TYPE": 0,
        "CLASSIFICATION_TYPE": "U",
        "NORAD_CAT_ID": 49205,
        "ELEMENT_SET_NO": 999,
        "REV_AT_EPOCH": 20563,
        "BSTAR": -0.00069817831,
        "MEAN_MOTION_DOT": -2.42e-06,
        "MEAN_MOTION_DDOT": 0
    },
    {
        "OBJECT_NAME": "ONEWEB-0340",
        "OBJECT_ID": "2021-083W",
        "EPOCH": "2025-12-06T18:53:34.613088",
        "MEAN_MOTION": 13.1868591,
        "ECCENTRICITY": 0.00017335,
        "INCLINATION": 87.9186,
        "RA_OF_ASC_NODE": 13.6646,
        "ARG_OF_PERICENTER": 97.2629,
        "MEAN_ANOMALY": 262.87,
        "EPHEMERIS_TYPE": 0,
        "CLASSIFICATION_TYPE": "U",
        "NORAD_CAT_ID": 49206,
        "ELEMENT_SET_NO": 999,
        "REV_AT_EPOCH": 20461,
        "BSTAR": 0.00018150259,
        "MEAN_MOTION_DOT": 8.4e-07,
        "MEAN_MOTION_DDOT": 0
    },
    {
        "OBJECT_NAME": "ONEWEB-0341",
        "OBJECT_ID": "2021-083X",
        "EPOCH": "2025-12-06T19:03:04.443552",
        "MEAN_MOTION": 13.18686114,
        "ECCENTRICITY": 0.00013363,
        "INCLINATION": 87.9182,
        "RA_OF_ASC_NODE": 13.6748,
        "ARG_OF_PERICENTER": 85.0803,
        "MEAN_ANOMALY": 275.0482,
        "EPHEMERIS_TYPE": 0,
        "CLASSIFICATION_TYPE": "U",
        "NORAD_CAT_ID": 49207,
        "ELEMENT_SET_NO": 999,
        "REV_AT_EPOCH": 20463,
        "BSTAR": 0.00019193075,
        "MEAN_MOTION_DOT": 8.9e-07,
        "MEAN_MOTION_DDOT": 0
    },
    {
        "OBJECT_NAME": "ONEWEB-0342",
        "OBJECT_ID": "2021-083Y",
        "EPOCH": "2025-12-06T22:17:12.611616",
        "MEAN_MOTION": 13.20770374,
        "ECCENTRICITY": 0.00019129,
        "INCLINATION": 87.9196,
        "RA_OF_ASC_NODE": 312.7767,
        "ARG_OF_PERICENTER": 80.7404,
        "MEAN_ANOMALY": 279.3946,
        "EPHEMERIS_TYPE": 0,
        "CLASSIFICATION_TYPE": "U",
        "NORAD_CAT_ID": 49208,
        "ELEMENT_SET_NO": 999,
        "REV_AT_EPOCH": 21140,
        "BSTAR": -7.9412745e-05,
        "MEAN_MOTION_DOT": -1.9e-07,
        "MEAN_MOTION_DDOT": 0
    },
    {
        "OBJECT_NAME": "ONEWEB-0343",
        "OBJECT_ID": "2021-083Z",
        "EPOCH": "2025-12-06T19:14:56.578272",
        "MEAN_MOTION": 13.18684518,
        "ECCENTRICITY": 0.00016356,
        "INCLINATION": 87.9185,
        "RA_OF_ASC_NODE": 13.6655,
        "ARG_OF_PERICENTER": 76.2274,
        "MEAN_ANOMALY": 283.904,
        "EPHEMERIS_TYPE": 0,
        "CLASSIFICATION_TYPE": "U",
        "NORAD_CAT_ID": 49209,
        "ELEMENT_SET_NO": 999,
        "REV_AT_EPOCH": 20468,
        "BSTAR": 0.0001365903,
        "MEAN_MOTION_DOT": 6.7e-07,
        "MEAN_MOTION_DDOT": 0
    }
]