[{"norad_id":"49198","company":"ONEWEB","tle_line2":"2 49198  87.9182  13.6573 0001537 104.3570 255.7732 13.18685618204654","launch_date":"2021-09-14","type":"LEO","tle_line1":"1 49198U 21083N   25340.80039291  .00000032  00000+0  48550-4 0  9991","satellite_name":"ONEWEB-0331"},{"norad_id":"49199","company":"ONEWEB","tle_line2":"2 49199  87.8968 358.4957 0001823  93.8676 266.2661 13.13471453205653","launch_date":"2021-09-14","type":"LEO","tle_line1":"1 49199U 21083P   25340.79174154 -.00000016  00000+0 -80017-4 0  9996","satellite_name":"ONEWEB-0333"},{"norad_id":"49200","company":"ONEWEB","tle_line2":"2 49200  87.9185 312.7995 0002754  74.1443 285.9994 13.20770977211410","launch_date":"2021-09-14","type":"LEO","tle_line1":"1 49200U 21083Q   25340.94756300  .00000139  00000+0  30889-3 0  9990","satellite_name":"ONEWEB-0334"},{"norad_id":"49201","company":"ONEWEB","tle_line2":"2 49201  87.8970 358.4853 0001629  98.8905 261.2408 13.13471510205668","launch_date":"2021-09-14","type":"LEO","tle_line1":"1 49201U 21083R   25340.78665909 -.00000035  00000+0 -13034-3 0  9997","satellite_name":"ONEWEB-0335"},{"norad_id":"49202","company":"ONEWEB","tle_line2":"2 49202  87.8974 358.4869 0001425 103.5746 256.5542 13.13470513205658","launch_date":"2021-09-14","type":"LEO","tle_line1":"1 49202U 21083S   25340.75788013  .00000033  00000+0  54394-4 0  9998","satellite_name":"ONEWEB-0336"},{"norad_id":"49203","company":"ONEWEB","tle_line2":"2 49203  87.8976 358.4961 0001512  91.8961 268.2341 13.13471015205654","launch_date":"2021-09-14","type":"LEO","tle_line1":"1 49203U 21083T   25340.76789550 -.00000167  00000+0 -49159-3 0  9999","satellite_name":"ONEWEB-0337"},{"norad_id":"49204","company":"ONEWEB","tle_line2":"2 49204  87.9190 312.8071 0002031  78.6243 281.5118 13.20772474211437","launch_date":"2021-09-14","type":"LEO","tle_line1":"1 49204U 21083U   25340.92231392 -.00000045  00000+0 -14259-3 0  9992","satellite_name":"ONEWEB-0338"},{"norad_id":"49205","company":"ONEWEB","tle_line2":"2 49205  87.8978 358.4768 0001732  87.2347 272.8981 13.13470673205632","launch_date":"2021-09-14","type":"LEO","tle_line1":"1 49205U 21083V   25340.77650121 -.00000242  00000+0 -69818-3 0  9991","satellite_name":"ONEWEB-0339"},{"norad_id":"49206","company":"ONEWEB","tle_line2":"2 49206  87.9186  13.6646 0001733  97.2629 262.8700 13.18685910204617","launch_date":"2021-09-14","type":"LEO","tle_line1":"1 49206U 21083W   25340.78720617  .00000084  00000+0  18150-3 0  9996","satellite_name":"ONEWEB-0340"},{"norad_id":"49207","company":"ONEWEB","tle_line2":"2 49207  87.9182  13.6748 0001336  85.0803 275.0482 13.18686114204637","launch_date":"2021-09-14","type":"LEO","tle_line1":"1 49207U 21083X   25340.79380143  .00000089  00000+0  19193-3 0  9997","satellite_name":"ONEWEB-0341"},{"norad_id":"49208","company":"ONEWEB","tle_line2":"2 49208  87.9196 312.7767 0001912  80.7404 279.3946 13.20770374211406","launch_date":"2021-09-14","type":"LEO","tle_line1":"1 49208U 21083Y   25340.92861819 -.00000019  00000+0 -79413-4 0  9994","satellite_name":"ONEWEB-0342"},{"norad_id":"49209","company":"ONEWEB","tle_line2":"2 49209  87.9185  13.6655 0001635  76.2274 283.9040 13.18684518204684","launch_date":"2021-09-14","type":"LEO","tle_line1":"1 49209U 21083Z   25340.80204373  .00000067  00000+0  13659-3 0  9998","satellite_name":"ONEWEB-0343"}]